{"type": "FeatureCollection", "features": [ {"type": "Feature", "properties": {"norad_id": 35744, "name": "IRIDIUM 33 DEB", "group": "iridium-33-debris", "lat": -75.45138161893658, "lon": 156.2969743459744, "alt_km": 665.1831788865265, "timestamp": "2025-12-20T09:36:02.034153+00:00", "meta": {"OBJECT_NAME": "IRIDIUM 33 DEB", "OBJECT_ID": "1997-051RX", "EPOCH": "2025-12-18T04:12:04.449600", "MEAN_MOTION": 14.71066119, "ECCENTRICITY": 0.00209704, "INCLINATION": 86.329, "RA_OF_ASC_NODE": 322.9794, "ARG_OF_PERICENTER": 172.7789, "MEAN_ANOMALY": 187.3734, "EPHEMERIS_TYPE": 0, "CLASSIFICATION_TYPE": "U", "NORAD_CAT_ID": 35744, "ELEMENT_SET_NO": 999, "REV_AT_EPOCH": 87411, "BSTAR": 0.00085332597, "MEAN_MOTION_DOT": 5.283e-05, "MEAN_MOTION_DDOT": 0}, "tle": {"line1": "1 35744U 97051RX  25352.17505150  .00005283  00000+0  85333-3 0  9998", "line2": "2 35744  86.3290 322.9794 0020970 172.7789 187.3734 14.71066119874118"}}, "geometry": {"type": "Point", "coordinates": [156.2969743459744, -75.45138161893658]}}, {"type": "Feature", "properties": {"norad_id": 35797, "name": "IRIDIUM 33 DEB", "group": "iridium-33-debris", "lat": -51.02917166765394, "lon": -38.09131811477145, "alt_km": 637.1409299295665, "timestamp": "2025-12-20T09:36:02.034163+00:00", "meta": {"OBJECT_NAME": "IRIDIUM 33 DEB", "OBJECT_ID": "1997-051SF", "EPOCH": "2025-12-20T04:58:23.123712", "MEAN_MOTION": 14.82943756, "ECCENTRICITY": 0.0014444, "INCLINATION": 86.3358, "RA_OF_ASC_NODE": 326.5409, "ARG_OF_PERICENTER": 124.2299, "MEAN_ANOMALY": 236.0295, "EPHEMERIS_TYPE": 0, "CLASSIFICATION_TYPE": "U", "NORAD_CAT_ID": 35797, "ELEMENT_SET_NO": 999, "REV_AT_EPOCH": 87451, "BSTAR": 0.0011308, "MEAN_MOTION_DOT": 9.219e-05, "MEAN_MOTION_DDOT": 0}, "tle": {"line1": "1 35797U 97051SF  25354.20721208  .00009219  00000+0  11308-2 0  9999", "line2": "2 35797  86.3358 326.5409 0014444 124.2299 236.0295 14.82943756874512"}}, "geometry": {"type": "Point", "coordinates": [-38.09131811477145, -51.02917166765394]}}, {"type": "Feature", "properties": {"norad_id": 35806, "name": "IRIDIUM 33 DEB", "group": "iridium-33-debris", "lat": -85.27358293973815, "lon": -33.38982573159276, "alt_km": 717.2969553930634, "timestamp": "2025-12-20T09:36:02.034175+00:00", "meta": {"OBJECT_NAME": "IRIDIUM 33 DEB", "OBJECT_ID": "1997-051SQ", "EPOCH": "2025-12-16T08:46:37.248096", "MEAN_MOTION": 14.57379748, "ECCENTRICITY": 0.00158634, "INCLINATION": 86.3444, "RA_OF_ASC_NODE": 19.032, "ARG_OF_PERICENTER": 64.1996, "MEAN_ANOMALY": 296.0847, "EPHEMERIS_TYPE": 0, "CLASSIFICATION_TYPE": "U", "NORAD_CAT_ID": 35806, "ELEMENT_SET_NO": 999, "REV_AT_EPOCH": 86377, "BSTAR": 0.00073764812, "MEAN_MOTION_DOT": 3.369e-05, "MEAN_MOTION_DDOT": 0}, "tle": {"line1": "1 35806U 97051SQ  25350.36570889  .00003369  00000+0  73765-3 0  9996", "line2": "2 35806  86.3444  19.0320 0015863  64.1996 296.0847 14.57379748863778"}}, "geometry": {"type": "Point", "coordinates": [-33.38982573159276, -85.27358293973815]}}, {"type": "Feature", "properties": {"norad_id": 35809, "name": "IRIDIUM 33 DEB", "group": "iridium-33-debris", "lat": 65.54707543365508, "lon": -20.02101174068899, "alt_km": 641.7430959957874, "timestamp": "2025-12-20T09:36:02.034186+00:00", "meta": {"OBJECT_NAME": "IRIDIUM 33 DEB", "OBJECT_ID": "1997-051ST", "EPOCH": "2025-12-10T16:35:56.421600", "MEAN_MOTION": 14.75629145, "ECCENTRICITY": 0.00097103, "INCLINATION": 86.329, "RA_OF_ASC_NODE": 336.2813, "ARG_OF_PERICENTER": 251.0565, "MEAN_ANOMALY": 108.9602, "EPHEMERIS_TYPE": 0, "CLASSIFICATION_TYPE": "U", "NORAD_CAT_ID": 35809, "ELEMENT_SET_NO": 999, "REV_AT_EPOCH": 86777, "BSTAR": 0.0026432017, "MEAN_MOTION_DOT": 0.00018102, "MEAN_MOTION_DDOT": 0}, "tle": {"line1": "1 35809U 97051ST  25344.69162525  .00018102  00000+0  26432-2 0  9991", "line2": "2 35809  86.3290 336.2813 0009710 251.0565 108.9602 14.75629145867777"}}, "geometry": {"type": "Point", "coordinates": [-20.02101174068899, 65.54707543365508]}}, {"type": "Feature", "properties": {"norad_id": 35846, "name": "IRIDIUM 33 DEB", "group": "iridium-33-debris", "lat": 27.273543447754456, "lon": 57.44502877118451, "alt_km": 753.6565423031916, "timestamp": "2025-12-20T09:36:02.034196+00:00", "meta": {"OBJECT_NAME": "IRIDIUM 33 DEB", "OBJECT_ID": "1997-051SW", "EPOCH": "2025-12-19T21:49:32.159136", "MEAN_MOTION": 14.43182687, "ECCENTRICITY": 0.001947, "INCLINATION": 86.3741, "RA_OF_ASC_NODE": 55.781, "ARG_OF_PERICENTER": 147.8852, "MEAN_ANOMALY": 212.3539, "EPHEMERIS_TYPE": 0, "CLASSIFICATION_TYPE": "U", "NORAD_CAT_ID": 35846, "ELEMENT_SET_NO": 999, "REV_AT_EPOCH": 71432, "BSTAR": 0.00035968, "MEAN_MOTION_DOT": 1.231e-05, "MEAN_MOTION_DDOT": 0}, "tle": {"line1": "1 35846U 97051SW  25353.90939999  .00001231  00000+0  35968-3 0  9993", "line2": "2 35846  86.3741  55.7810 0019470 147.8852 212.3539 14.43182687714325"}}, "geometry": {"type": "Point", "coordinates": [57.44502877118451, 27.273543447754456]}}, {"type": "Feature", "properties": {"norad_id": 35848, "name": "IRIDIUM 33 DEB", "group": "iridium-33-debris", "lat": 81.59851546309812, "lon": 167.37116504636896, "alt_km": 623.271249892352, "timestamp": "2025-12-20T09:36:02.034207+00:00", "meta": {"OBJECT_NAME": "IRIDIUM 33 DEB", "OBJECT_ID": "1997-051SY", "EPOCH": "2025-12-16T19:05:07.807200", "MEAN_MOTION": 14.78723023, "ECCENTRICITY": 0.00083075, "INCLINATION": 86.3897, "RA_OF_ASC_NODE": 14.3007, "ARG_OF_PERICENTER": 174.3439, "MEAN_ANOMALY": 185.7876, "EPHEMERIS_TYPE": 0, "CLASSIFICATION_TYPE": "U", "NORAD_CAT_ID": 35848, "ELEMENT_SET_NO": 999, "REV_AT_EPOCH": 66750, "BSTAR": 0.0011327955, "MEAN_MOTION_DOT": 8.343e-05, "MEAN_MOTION_DDOT": 0}, "tle": {"line1": "1 35848U 97051SY  25350.79522925  .00008343  00000+0  11328-2 0  9990", "line2": "2 35848  86.3897  14.3007 0008307 174.3439 185.7876 14.78723023667508"}}, "geometry": {"type": "Point", "coordinates": [167.37116504636896, 81.59851546309812]}}, {"type": "Feature", "properties": {"norad_id": 35850, "name": "IRIDIUM 33 DEB", "group": "iridium-33-debris", "lat": 67.66606666074202, "lon": -10.297573900374358, "alt_km": 625.9972654149578, "timestamp": "2025-12-20T09:36:02.034217+00:00", "meta": {"OBJECT_NAME": "IRIDIUM 33 DEB", "OBJECT_ID": "1997-051TA", "EPOCH": "2025-12-17T06:35:50.424288", "MEAN_MOTION": 14.78922738, "ECCENTRICITY": 0.00098245, "INCLINATION": 86.3492, "RA_OF_ASC_NODE": 342.1832, "ARG_OF_PERICENTER": 168.4252, "MEAN_ANOMALY": 191.7196, "EPHEMERIS_TYPE": 0, "CLASSIFICATION_TYPE": "U", "NORAD_CAT_ID": 35850, "ELEMENT_SET_NO": 999, "REV_AT_EPOCH": 71424, "BSTAR": 0.0012101447, "MEAN_MOTION_DOT": 8.956e-05, "MEAN_MOTION_DDOT": 0}, "tle": {"line1": "1 35850U 97051TA  25351.27488917  .00008956  00000+0  12101-2 0  9999", "line2": "2 35850  86.3492 342.1832 0009824 168.4252 191.7196 14.78922738714242"}}, "geometry": {"type": "Point", "coordinates": [-10.297573900374358, 67.66606666074202]}}, {"type": "Feature", "properties": {"norad_id": 35915, "name": "IRIDIUM 33 DEB", "group": "iridium-33-debris", "lat": 60.392848819423676, "lon": -14.081493909284855, "alt_km": 621.7717191224247, "timestamp": "2025-12-20T09:36:02.034227+00:00", "meta": {"OBJECT_NAME": "IRIDIUM 33 DEB", "OBJECT_ID": "1997-051TY", "EPOCH": "2025-12-15T17:25:35.441760", "MEAN_MOTION": 14.80816607, "ECCENTRICITY": 0.00112544, "INCLINATION": 86.3436, "RA_OF_ASC_NODE": 341.593, "ARG_OF_PERICENTER": 174.6839, "MEAN_ANOMALY": 185.4504, "EPHEMERIS_TYPE": 0, "CLASSIFICATION_TYPE": "U", "NORAD_CAT_ID": 35915, "ELEMENT_SET_NO": 999, "REV_AT_EPOCH": 8130, "BSTAR": 0.0011378054, "MEAN_MOTION_DOT": 8.81e-05, "MEAN_MOTION_DDOT": 0}, "tle": {"line1": "1 35915U 97051TY  25349.72610465  .00008810  00000+0  11378-2 0  9997", "line2": "2 35915  86.3436 341.5930 0011254 174.6839 185.4504 14.80816607 81301"}}, "geometry": {"type": "Point", "coordinates": [-14.081493909284855, 60.392848819423676]}}, {"type": "Feature", "properties": {"norad_id": 35918, "name": "IRIDIUM 33 DEB", "group": "iridium-33-debris", "lat": 57.948894496868554, "lon": -113.24071390527669, "alt_km": 697.4447073147439, "timestamp": "2025-12-20T09:36:02.034257+00:00", "meta": {"OBJECT_NAME": "IRIDIUM 33 DEB", "OBJECT_ID": "1997-051UB", "EPOCH": "2025-12-19T23:40:47.068896", "MEAN_MOTION": 14.51300512, "ECCENTRICITY": 0.0028255, "INCLINATION": 86.4011, "RA_OF_ASC_NODE": 72.7058, "ARG_OF_PERICENTER": 146.3129, "MEAN_ANOMALY": 337.2961, "EPHEMERIS_TYPE": 0, "CLASSIFICATION_TYPE": "U", "NORAD_CAT_ID": 35918, "ELEMENT_SET_NO": 999, "REV_AT_EPOCH": 85312, "BSTAR": 0.00067099, "MEAN_MOTION_DOT": 2.704e-05, "MEAN_MOTION_DDOT": 0}, "tle": {"line1": "1 35918U 97051UB  25353.98665589  .00002704  00000+0  67099-3 0  9998", "line2": "2 35918  86.4011  72.7058 0028255 146.3129 337.2961 14.51300512853127"}}, "geometry": {"type": "Point", "coordinates": [-113.24071390527669, 57.948894496868554]}}, {"type": "Feature", "properties": {"norad_id": 35929, "name": "IRIDIUM 33 DEB", "group": "iridium-33-debris", "lat": -28.050411676564877, "lon": 130.95468291878151, "alt_km": 575.2978679791804, "timestamp": "2025-12-20T09:36:02.034272+00:00", "meta": {"OBJECT_NAME": "IRIDIUM 33 DEB", "OBJECT_ID": "1997-051UN", "EPOCH": "2025-12-19T03:54:47.819808", "MEAN_MOTION": 15.02824577, "ECCENTRICITY": 0.00169983, "INCLINATION": 86.3333, "RA_OF_ASC_NODE": 309.5832, "ARG_OF_PERICENTER": 16.9141, "MEAN_ANOMALY": 343.2656, "EPHEMERIS_TYPE": 0, "CLASSIFICATION_TYPE": "U", "NORAD_CAT_ID": 35929, "ELEMENT_SET_NO": 999, "REV_AT_EPOCH": 87876, "BSTAR": 0.0020745591, "MEAN_MOTION_DOT": 0.00027961, "MEAN_MOTION_DDOT": 0}, "tle": {"line1": "1 35929U 97051UN  25353.16305347  .00027961  00000+0  20746-2 0  9992", "line2": "2 35929  86.3333 309.5832 0016998  16.9141 343.2656 15.02824577878767"}}, "geometry": {"type": "Point", "coordinates": [130.95468291878151, -28.050411676564877]}}]}